satname,norad_id,inclination_deg,eccentricity,mean_motion_rev_per_day,perigee_km,apogee_km,l1,l2
STARLINK-1296,45412,53.1573,0.0002186,15.33840523,462.87085789685716,465.8624004835392,1 45412U 20019BE  26108.81878158  .00047047  00000+0  14197-2 0  9996,2 45412  53.1573 302.3699 0002186 168.7146 191.3905 15.33840523336121
STARLINK-1309,45414,53.0641,0.0005212,15.62711787,376.30540423148614,383.3499065882861,1 45414U 20019BG  26108.89192219  .00082781  00000+0  90174-3 0  9997,2 45414  53.0641 288.2017 0005212 205.0337 155.0424 15.62711787336308
STARLINK-1316,45415,53.1601,0.0002732,15.34073969,461.8032623234576,465.5416270040223,1 45415U 20019BH  26108.79728387  .00039434  00000+0  11842-2 0  9999,2 45415  53.1601 302.5063 0002732 230.4320 129.6441 15.34073969336145
STARLINK-1286,45417,53.0484,0.0002815,15.54138871,402.74762434283366,406.56633735405194,1 45417U 20019BK  26108.84081767  .00057756  00000+0  87405-3 0  9997,2 45417  53.0484 297.3244 0002815 182.6399 177.4596 15.54138871336466
STARLINK-1308,45419,53.0511,0.0005842,15.57996153,389.5011775395633,397.4131081360556,1 45419U 20019BM  26108.86740621  .00067609  00000+0  88469-3 0  9991,2 45419  53.0511 318.0434 0005842 189.5861 170.5039 15.57996153335928
STARLINK-1329,45531,53.0445,0.00022,15.67384234,364.90663481892534,367.87422688850165,1 45531U 20025A   26108.66165799  .00058519  00000+0  53275-3 0  9995,2 45531  53.0445 245.6637 0002200 339.5470  20.5457 15.67384234331709
STARLINK-1338,45532,53.0463,8.47e-05,15.61913314,381.55804499800433,382.7032343361634,1 45532U 20025B   26108.72217683  .00067249  00000+0  75855-3 0  9991,2 45532  53.0463 250.2107 0000847 257.4428 102.6491 15.61913314331644
STARLINK-1350,45535,53.0723,7.39e-05,15.37109573,454.15670701851195,455.1665946591065,1 45535U 20025E   26108.53015457  .00010588  00000+0  29740-3 0  9994,2 45535  53.0723 205.8858 0000739 100.5534 259.5551 15.37109573332288
STARLINK-1362,45538,53.1605,0.0002279,15.32524113,466.72415874989474,469.8447576505423,1 45538U 20025H   26108.86555898 -.00167709  00000+0 -53730-2 0  9996,2 45538  53.1605 274.1235 0002279  77.8413 282.2844 15.32524113331331
STARLINK-1368,45540,53.158,8.32e-05,15.32980971,466.35463746995356,467.4936556447401,1 45540U 20025K   26108.74891197  .00034034  00000+0  10602-2 0  9994,2 45540  53.1580 275.0405 0000832  49.3435 310.7639 15.32980971331300
STARLINK-1371,45542,53.0482,0.0003317,15.53777236,403.4591823564342,407.95958604771386,1 45542U 20025M   26108.64760377  .00060054  00000+0  92025-3 0  9991,2 45542  53.0482 257.5428 0003317 297.1992  62.8679 15.53777236331539
STARLINK-1372,45543,53.162,6.96e-05,15.33392178,465.22400901935,466.17667117709243,1 45543U 20025N   26108.72321215  .00046355  00000+0  14191-2 0  9990,2 45543  53.1620 274.8290 0000696  57.8920 302.2150 15.33392178330409
STARLINK-1373,45544,53.0469,0.0002051,15.580462,391.92330803576715,394.70095646981736,1 45544U 20025P   26108.81646869  .00065683  00000+0  85875-3 0  9999,2 45544  53.0469 255.1218 0002051 251.2770 108.8018 15.58046200331584
STARLINK-1327,45555,53.0446,0.0004622,15.60597298,382.80427302738553,389.05697714001326,1 45555U 20025AA  26108.62813425  .00075382  00000+0  89249-3 0  9990,2 45555  53.0446 232.7762 0004622 255.4619 104.5881 15.60597298331874
STARLINK-1356,45564,53.0473,0.0002687,15.51070776,411.77356416438397,415.4234428239615,1 45564U 20025AK  26108.63032649  .00077417  00000+0  13024-2 0  9990,2 45564  53.0473 242.7703 0002687 220.6379 139.4429 15.51070776331733
STARLINK-1357,45565,53.0478,0.0006639,15.64215498,371.0121817615045,379.9796555508965,1 45565U 20025AL  26108.43713474  .00082999  00000+0  85196-3 0  9992,2 45565  53.0478 204.4267 0006639 322.8534  37.2020 15.64215498332265
STARLINK-1361,45567,53.0473,0.0002275,15.54301836,402.6398878151358,405.7258433539773,1 45567U 20025AN  26108.83116788  .00055796  00000+0  83987-3 0  9994,2 45567  53.0473 240.9635 0002275 182.9279 177.1718 15.54301836331784
STARLINK-1363,45568,53.0362,0.0001888,15.88752953,304.51621806182266,307.040064419155,1 45568U 20025AP  26109.00002315  .00195563  00000+0  66633-3 0  9991,2 45568  53.0362 194.6966 0001888   0.7909  37.0186 15.88752953  6026
STARLINK-1366,45569,53.0382,0.0001616,15.8613853,312.03952362297605,314.2021381539198,1 45569U 20025AQ  26108.54134232  .00183655  00000+0  71289-3 0  9996,2 45569  53.0382 198.2334 0001616 311.8431  48.2455 15.86138530332340
STARLINK-1376,45570,53.16,0.0002592,15.33846662,462.57479954718565,466.1219439639026,1 45570U 20025AR  26108.64713292  .00039222  00000+0  11864-2 0  9990,2 45570  53.1600 251.7225 0002592 312.9476  47.1309 15.33846662331625
STARLINK-1320,45572,53.0446,0.0002781,15.75447316,341.4893450314248,345.22784088022763,1 45572U 20025AT  26107.84037733  .00060099  00000+0  38979-3 0  9995,2 45572  53.0446 151.5546 0002781 109.2264 250.9056 15.75447316332969
STARLINK-1321,45573,53.046,0.0003602,15.5548372,398.3051254599286,403.18863340667303,1 45573U 20025AU  26108.68427884  .00071847  00000+0  10315-2 0  9995,2 45573  53.0460 225.9913 0003602 302.6343  57.4320 15.55483720331678
STARLINK-1331,45578,53.0496,0.0005182,15.55125088,398.2756806923444,405.30239603850623,1 45578U 20025AZ  26108.95350232  .00054437  00000+0  79514-3 0  9995,2 45578  53.0496 231.4384 0005182 280.0784  79.9641 15.55125088331933
STARLINK-1333,45580,53.1603,0.0001069,15.30972583,472.17686912584304,473.64162281323206,1 45580U 20025BB  26108.66298111  .00046496  00000+0  15351-2 0  9997,2 45580  53.1603 252.1046 0001069  36.3262 323.7812 15.30972583331624
STARLINK-1335,45581,53.1575,0.0001186,15.3246058,467.66167556865,469.2856916227993,1 45581U 20025BC  26108.61311948  .00009698  00000+0  31636-3 0  9995,2 45581  53.1575 249.6251 0001186  25.5403 334.5657 15.32460580331649
STARLINK-1337,45582,53.0495,0.0005635,15.66141165,366.15622656196683,373.7613305043733,1 45582U 20025BD  26108.80119081  .00080303  00000+0  76414-3 0  9996,2 45582  53.0495 225.7851 0005635 292.2673  67.7744 15.66141165331987
STARLINK-1347,45586,53.0397,0.0003852,15.62538718,377.72330048322146,382.9300208874138,1 45586U 20025BH  26108.95679164  .00076496  00000+0  84021-3 0  9990,2 45586  53.0397 193.7917 0003852 332.8122  27.2689 15.62538718332449
STARLINK-1364,45589,53.0475,0.0004522,15.56649284,394.29871688510866,400.4264787213615,1 45589U 20025BL  26108.58336593  .00075412  00000+0  10361-2 0  9990,2 45589  53.0475 230.8530 0004522 242.7726 117.2824 15.56649284331890
STARLINK-1365,45590,53.0506,0.0003315,15.51625891,409.7275938715193,414.2294404594004,1 45590U 20025BM  26108.81228550  .00054401  00000+0  90208-3 0  9995,2 45590  53.0506 261.4384 0003315 241.9382 118.1291 15.51625891331501
STARLINK-1443,45660,53.135,0.000169,15.2867416,478.6157546508448,480.9337288195511,1 45660U 20035D   26108.64156977  .00036112  00000+0  12842-2 0  9994,2 45660  53.1350 240.1503 0001690 271.5279  88.5527 15.28674160324862
STARLINK-1446,45663,53.0231,0.0003749,15.44675848,429.7774508576558,434.8839395355144,1 45663U 20035G   26108.88467385  .00031244  00000+0  66562-3 0  9991,2 45663  53.0231 168.1849 0003749  37.9740 322.1529 15.44675848325882
STARLINK-1448,45665,53.0464,0.0005688,15.61037877,380.8111845914418,388.50454002680453,1 45665U 20035J   26108.77671635  .00085566  00000+0  99379-3 0  9994,2 45665  53.0464 218.4263 0005688 280.3372  79.6999 15.61037877325169
STARLINK-1451,45668,53.0525,4.38e-05,15.12091337,529.5205955890351,530.1257328994243,1 45668U 20035M   26108.62866855  .00019474  00000+0  11324-2 0  9999,2 45668  53.0525 245.4463 0000438  65.7178 294.3859 15.12091337324784
STARLINK-1452,45669,53.0282,0.0001139,15.50882842,413.3735271301084,414.92080946364604,1 45669U 20035N   26108.51272093  .00078942  00000+0  13366-2 0  9996,2 45669  53.0282 191.1004 0001139 255.9766 104.1116 15.50882842325537
STARLINK-1453,45670,53.043,0.0002557,15.61559254,381.42359846629006,384.88132189622684,1 45670U 20035P   26108.88623973  .00061329  00000+0  70229-3 0  9998,2 45670  53.0430 178.3614 0002557   8.7704 351.3354 15.61559254325630
STARLINK-1454,45671,53.0465,0.0004184,15.59207237,387.11845139150955,392.78198677644014,1 45671U 20035Q   26108.78449691  .00049983  00000+0  62810-3 0  9990,2 45671  53.0465 218.9247 0004184 262.1315  97.9222 15.59207237325156
STARLINK-1456,45673,53.0467,0.0005955,15.57161335,391.84323797045545,399.91108883906963,1 45673U 20035S   26108.57063785  .00092184  00000+0  12382-2 0  9994,2 45673  53.0467 213.9471 0005955 329.5674  30.4991 15.57161335325226
STARLINK-1457,45674,53.0393,0.0004457,15.92992673,290.93973199868014,296.88719778308405,1 45674U 20035T   26109.00002315  .00270151  38866-4  76329-3 0  9996,2 45674  53.0393 178.5395 0004457 343.6098 295.9642 15.92992673  6031
STARLINK-1458,45675,53.0509,0.0004955,15.48995874,416.29392492500756,423.03054396634343,1 45675U 20035U   26108.56797964  .00081021  00000+0  14651-2 0  9997,2 45675  53.0509 225.3356 0004955 272.1650  87.8790 15.48995874325024
STARLINK-1460,45676,53.1589,0.0001318,15.30943973,472.0916206221118,473.89757891180943,1 45676U 20035V   26108.63419912  .00040728  00000+0  13483-2 0  9991,2 45676  53.1589 239.3784 0001318  33.1454 326.9629 15.30943973324831
STARLINK-1392,45677,53.1565,0.0001134,15.33785037,463.7556918940063,465.30760914394523,1 45677U 20035W   26108.62304786  .00048788  00000+0  14741-2 0  9995,2 45677  53.1565 239.1882 0001134  64.3385 295.7735 15.33785037324871
STARLINK-1394,45679,53.0441,0.0007406,15.57131706,390.94619493458504,400.97999199302467,1 45679U 20035Y   26108.95274810  .00058596  00000+0  79336-3 0  9997,2 45679  53.0441 202.3157 0007406 325.4212  34.6316 15.57131706325410
STARLINK-1402,45685,53.0449,0.0007437,15.51239802,408.0544875946025,418.155781145264,1 45685U 20035AE  26108.55174914  .00113688  00000+0  18872-2 0  9995,2 45685  53.0449 192.6454 0007437 358.7638   1.3351 15.51239802325523
